EOSSAT-1                
1 55053U 23001AW  26068.73619225  .00007695  00000+0  24844-3 0  9992
2 55053  97.3357 130.2294 0011263 110.3168 249.9285 15.32339828176689
STARLINK-32292          
1 61889U 24204R   26068.53812908 -.00000873  00000+0 -17371-4 0  9994
2 61889  53.1601 127.8321 0001045 122.8246 237.2855 15.30187281 75076
